{
    "links": {
        "self": "http://www.neowsapp.com/rest/v1/neo/3394753?api_key=iIulBulltgU6a56xZRHN4H3l9WmuAYTsLGpBGhQ2"
    },
    "id": "3394753",
    "neo_reference_id": "3394753",
    "name": "(2007 VJ189)",
    "designation": "2007 VJ189",
    "nasa_jpl_url": "http://ssd.jpl.nasa.gov/sbdb.cgi?sstr=3394753",
    "absolute_magnitude_h": 25.7,
    "estimated_diameter": {
        "kilometers": {
            "estimated_diameter_min": 0.0192555078,
            "estimated_diameter_max": 0.0430566244
        },
        "meters": {
            "estimated_diameter_min": 19.2555078188,
            "estimated_diameter_max": 43.0566244241
        },
        "miles": {
            "estimated_diameter_min": 0.0119648141,
            "estimated_diameter_max": 0.0267541378
        },
        "feet": {
            "estimated_diameter_min": 63.1742402722,
            "estimated_diameter_max": 141.2618956756
        }
    },
    "is_potentially_hazardous_asteroid": false,
    "close_approach_data": [
        {
            "close_approach_date": "2007-05-16",
            "close_approach_date_full": "2007-May-16 18:50",
            "epoch_date_close_approach": 1179341400000,
            "relative_velocity": {
                "kilometers_per_second": "9.2368438946",
                "kilometers_per_hour": "33252.6380205471",
                "miles_per_hour": "20661.8961078227"
            },
            "miss_distance": {
                "astronomical": "0.1947882725",
                "lunar": "75.7726380025",
                "kilometers": "29139910.666979575",
                "miles": "18106700.869585135"
            },
            "orbiting_body": "Earth"
        },
        {
            "close_approach_date": "2007-11-11",
            "close_approach_date_full": "2007-Nov-11 19:41",
            "epoch_date_close_approach": 1194810060000,
            "relative_velocity": {
                "kilometers_per_second": "10.3027431234",
                "kilometers_per_hour": "37089.8752441565",
                "miles_per_hour": "23046.2060926816"
            },
            "miss_distance": {
                "astronomical": "0.0764663489",
                "lunar": "29.7454097221",
                "kilometers": "11439202.922116843",
                "miles": "7107991.0938767134"
            },
            "orbiting_body": "Earth"
        }
    ],
    "orbital_data": {
        "orbit_id": "6",
        "orbit_determination_date": "2017-04-06 09:05:10",
        "first_observation_date": "2007-11-14",
        "last_observation_date": "2007-11-15",
        "data_arc_in_days": 1,
        "observations_used": 18,
        "orbit_uncertainty": "9",
        "minimum_orbit_intersection": ".075739",
        "jupiter_tisserand_invariant": "5.509",
        "epoch_osculation": "2454419.5",
        "eccentricity": ".1494726452106689",
        "semi_major_axis": "1.122390208006557",
        "inclination": "18.19194978026563",
        "ascending_node_longitude": "54.77242730779133",
        "orbital_period": "434.3244022292506",
        "perihelion_distance": ".954623574657264",
        "perihelion_argument": "278.3995989750068",
        "aphelion_distance": "1.29015684135585",
        "perihelion_time": "2454344.002707177154",
        "mean_anomaly": "62.57770753087594",
        "mean_motion": ".828873528984863",
        "equinox": "J2000",
        "orbit_class": {
            "orbit_class_type": "APO",
            "orbit_class_description": "Near-Earth asteroid orbits which cross the Earth’s orbit similar to that of 1862 Apollo",
            "orbit_class_range": "a (semi-major axis) > 1.0 AU; q (perihelion) < 1.017 AU"
        }
    },
    "is_sentry_object": false
}